{
    "satellites": [
        {
            "name": "starlink348",
            "title": "Starlink-348 (G6-101)",
            "tle": [
                "1 67644C 26020AD  26038.77201389 -.01796500  00000+0 -62105-2 0   382",
                "2 67644  42.9994 324.0160 0001503 266.1692 109.4101 15.90305480    15"
            ],
            "stdMag": 5,
            "noradId": "67644",
            "tleUrl": "http://celestrak.org/NORAD/elements/supplemental/sup-gp.php?FILE=starlink&FORMAT=tle",
            "launchDate": "2026-01-30T07:22:00.000Z",
            "active": true,
            "batch": [
                {
                    "noradId": "67644",
                    "tle": [
                        "1 67644C 26020AD  26038.77201389 -.01796500  00000+0 -62105-2 0   382",
                        "2 67644  42.9994 324.0160 0001503 266.1692 109.4101 15.90305480    15"
                    ]
                },
                {
                    "noradId": "67645",
                    "tle": [
                        "1 67645C 26020AE  26038.76923611 -.01798100  00000+0 -62679-2 0   385",
                        "2 67645  42.9994 324.0412 0001554 264.9532  91.6102 15.90141326    11"
                    ]
                },
                {
                    "noradId": "67642",
                    "tle": [
                        "1 67642C 26020AB  26038.77062500 -.01805200  00000+0 -63601-2 0   380",
                        "2 67642  42.9996 324.0419 0001499 264.0983  96.7976 15.89934903    10"
                    ]
                },
                {
                    "noradId": "67641",
                    "tle": [
                        "1 67641C 26020AA  26038.77548611 -.01809900  00000+0 -64261-2 0   385",
                        "2 67641  42.9996 324.0185 0001475 268.4587 117.7140 15.89785244    10"
                    ]
                },
                {
                    "noradId": "67643",
                    "tle": [
                        "1 67643C 26020AC  26038.76923611 -.01813900  00000+0 -64983-2 0   389",
                        "2 67643  42.9995 324.0660 0001549 266.9410  79.8689 15.89608573    14"
                    ]
                },
                {
                    "noradId": "67640",
                    "tle": [
                        "1 67640C 26020Z   26038.77340278 -.01816900  00000+0 -65749-2 0   383",
                        "2 67640  42.9997 324.0488 0001516 265.4808 101.8817 15.89410129    17"
                    ]
                },
                {
                    "noradId": "67639",
                    "tle": [
                        "1 67639C 26020Y   26038.77340278 -.01820500  00000+0 -66300-2 0   386",
                        "2 67639  42.9997 324.0551 0001549 265.4199  99.5127 15.89284790    15"
                    ]
                },
                {
                    "noradId": "67638",
                    "tle": [
                        "1 67638C 26020X   26038.77340278 -.01823100  00000+0 -66997-2 0   386",
                        "2 67638  42.9997 324.0634 0001497 263.9025  97.7945 15.89105638    10"
                    ]
                },
                {
                    "noradId": "67637",
                    "tle": [
                        "1 67637C 26020W   26038.77131944 -.01830400  00000+0 -67885-2 0   381",
                        "2 67637  42.9999 324.0850 0001571 268.2072  78.1265 15.88926637    11"
                    ]
                },
                {
                    "noradId": "67636",
                    "tle": [
                        "1 67636C 26020V   26038.76923611 -.01835200  00000+0 -69187-2 0   389",
                        "2 67636  42.9999 324.1135 0001613 266.4165  61.8796 15.88599834    10"
                    ]
                },
                {
                    "noradId": "67635",
                    "tle": [
                        "1 67635C 26020U   26038.76993056 -.01833900  00000+0 -68711-2 0   385",
                        "2 67635  42.9997 324.1027 0001539 265.2881  69.4036 15.88724532    12"
                    ]
                },
                {
                    "noradId": "67634",
                    "tle": [
                        "1 67634C 26020T   26038.76923611 -.01847300  00000+0 -71053-2 0   386",
                        "2 67634  42.9999 324.1338 0001579 265.8108  54.3322 15.88203835    19"
                    ]
                },
                {
                    "noradId": "67633",
                    "tle": [
                        "1 67633C 26020S   26038.77618056 -.01851000  00000+0 -71834-2 0   389",
                        "2 67633  42.9998 324.0987 0001563 267.1792  89.6951 15.88024814    10"
                    ]
                },
                {
                    "noradId": "67632",
                    "tle": [
                        "1 67632C 26020R   26038.77479167 -.01854500  00000+0 -72446-2 0   384",
                        "2 67632  42.9997 324.1137 0001575 268.0648  78.2458 15.87893032    10"
                    ]
                },
                {
                    "noradId": "67631",
                    "tle": [
                        "1 67631C 26020Q   26038.77479167 -.01857000  00000+0 -73179-2 0   385",
                        "2 67631  42.9997 324.1219 0001579 268.9979  74.1033 15.87716828    11"
                    ]
                },
                {
                    "noradId": "67630",
                    "tle": [
                        "1 67630C 26020P   26038.77131944 -.01860000  00000+0 -73756-2 0   387",
                        "2 67630  42.9996 324.1499 0001560 260.6589  59.9319 15.87591667    15"
                    ]
                },
                {
                    "noradId": "67629",
                    "tle": [
                        "1 67629C 26020N   26038.77409722 -.01865000  00000+0 -74820-2 0   385",
                        "2 67629  42.9997 324.1439 0001458 266.7364  65.2987 15.87357660    16"
                    ]
                },
                {
                    "noradId": "67628",
                    "tle": [
                        "1 67628C 26020M   26038.76854167 -.01862500  00000+0 -74235-2 0   382",
                        "2 67628  42.9996 324.1725 0001483 260.5766  41.9011 15.87489577    10"
                    ]
                },
                {
                    "noradId": "67626",
                    "tle": [
                        "1 67626C 26020K   26038.77131944 -.01868400  00000+0 -75593-2 0   385",
                        "2 67626  42.9996 324.1695 0001571 264.8730  47.9618 15.87186724    17"
                    ]
                },
                {
                    "noradId": "67627",
                    "tle": [
                        "1 67627C 26020L   26038.76923611 -.01871800  00000+0 -76377-2 0   384",
                        "2 67627  42.9998 324.1907 0001538 262.8202  34.8106 15.87014700    12"
                    ]
                },
                {
                    "noradId": "67625",
                    "tle": [
                        "1 67625C 26020J   26038.77409722 -.01875400  00000+0 -77176-2 0   383",
                        "2 67625  42.9997 324.1680 0001416 264.3196  58.2057 15.86842820    17"
                    ]
                },
                {
                    "noradId": "67624",
                    "tle": [
                        "1 67624C 26020H   26038.77687500 -.01876800  00000+0 -77902-2 0   386",
                        "2 67624  42.9996 324.1586 0001667 266.3905  68.9526 15.86664293    13"
                    ]
                },
                {
                    "noradId": "67623",
                    "tle": [
                        "1 67623C 26020G   26038.77618056 -.01883500  00000+0 -78824-2 0   384",
                        "2 67623  42.9997 324.1709 0001406 264.6354  63.5924 15.86501138    11"
                    ]
                },
                {
                    "noradId": "67622",
                    "tle": [
                        "1 67622C 26020F   26038.77618056 -.01883700  00000+0 -79491-2 0   386",
                        "2 67622  42.9997 324.1787 0001525 260.4324  64.6525 15.86328275    17"
                    ]
                },
                {
                    "noradId": "67621",
                    "tle": [
                        "1 67621C 26020E   26038.77062500 -.01892500  00000+0 -80946-2 0   387",
                        "2 67621  42.9997 324.2273 0001426 266.1766  21.4783 15.86056347    15"
                    ]
                },
                {
                    "noradId": "67620",
                    "tle": [
                        "1 67620C 26020D   26038.76993056 -.01886900  00000+0 -80048-2 0   384",
                        "2 67620  42.9996 324.2236 0001494 261.6900  25.0644 15.86221424    13"
                    ]
                },
                {
                    "noradId": "67619",
                    "tle": [
                        "1 67619C 26020C   26038.77340278 -.01893900  00000+0 -81811-2 0   382",
                        "2 67619  42.9996 324.2190 0001426 259.6088  40.4069 15.85851117    18"
                    ]
                },
                {
                    "noradId": "67618",
                    "tle": [
                        "1 67618C 26020B   26038.77548611 -.01894200  00000+0 -82194-2 0   381",
                        "2 67618  42.9996 324.2109 0001524 260.0552  50.0267 15.85755897    13"
                    ]
                },
                {
                    "noradId": "67617",
                    "tle": [
                        "1 67617C 26020A   26038.77131944 -.01841100  00000+0 -80429-2 0   387",
                        "2 67617  42.9993 324.2425 0001803 264.0977  19.7638 15.85559035    15"
                    ]
                }
            ]
        }
    ],
    "config": {}
}